GLOBALSTAR M035         
1 25851U 99037A   24302.47263617 -.00000106  00000+0 -16003-2 0  9996
2 25851  51.9935 211.7100 0013792 330.8767 200.1973 11.04533815 70654
GLOBALSTAR M032         
1 25852U 99037B   24302.62619991 -.00000207  00000+0 -44930-2 0  9996
2 25852  51.9976  52.5339 0011370 137.7100 222.4578 11.19061440108869
GLOBALSTAR M051         
1 25853U 99037C   24302.49575307 -.00000106  00000+0 -83588-3 0  9995
2 25853  51.9790 239.8173 0001131 125.5083 234.5833 11.42199525105912
GLOBALSTAR M030         
1 25854U 99037D   24302.60320336 -.00000077  00000+0 -47926-4 0  9993
2 25854  51.9891  60.3849 0003505   3.7479 356.3363 11.55103069123288
GLOBALSTAR M026         
1 25873U 99041B   24302.39867675 -.00000137  00000+0 -26991-2 0  9991
2 25873  52.0039 332.2706 0001244 218.4949 154.5482 11.06828736122823
GLOBALSTAR M043         
1 25874U 99041C   24302.62248008 -.00000005  00000+0  18643-2 0  9999
2 25874  51.9396 264.0088 0012792 279.5862 251.5140 11.25685284 96790
GLOBALSTAR M028         
1 25875U 99041D   24302.37164976 -.00000022  00000+0  50242-3 0  9994
2 25875  51.9604 164.2921 0062613 288.4893  70.9170 12.50568182161177
